CTC2_L_00463001-01
1 60309U 24768EY  26037.47796296  .00000000  00000+0  00000-0 0  9992
2 60309  50.0000   0.0000 0000000   0.0000   0.0000 15.21936321    19
CTC2_L_00463001-02
1 60310U 24246CM  26037.47796296  .00000000  00000+0  00000-0 0  9995
2 60310  50.0000   0.0000 0000000   0.0000 120.0000 15.21936321    14
CTC2_L_00463001-03
1 60311U 22124WM  26037.47796296  .00000000  00000+0  00000-0 0  9999
2 60311  50.0000   0.0000 0000000   0.0000 240.0000 15.21936321    18
CTC2_L_00463002-01
1 60312U 22219XP  26037.47796296  .00000000  00000+0  00000-0 0  9995
2 60312  50.0000  12.0000 0000000   0.0000  16.0000 15.21936321    13
CTC2_L_00463002-02
1 60313U 26498ZQ  26037.47796296  .00000000  00000+0  00000-0 0  9999
2 60313  50.0000  12.0000 0000000   0.0000 136.0000 15.21936321    17
CTC2_L_00463002-03
1 60314U 26987AE  26037.47796296  .00000000  00000+0  00000-0 0  9993
2 60314  50.0000  12.0000 0000000   0.0000 256.0000 15.21936321    11
CTC2_L_00463003-01
1 60315U 24238GP  26037.47796296  .00000000  00000+0  00000-0 0  9991
2 60315  50.0000  24.0000 0000000   0.0000  32.0000 15.21936321    17
CTC2_L_00463003-02
1 60316U 23131XE  26037.47796296  .00000000  00000+0  00000-0 0  9993
2 60316  50.0000  24.0000 0000000   0.0000 152.0000 15.21936321    11
CTC2_L_00463003-03
1 60317U 24262CJ  26037.47796296  .00000000  00000+0  00000-0 0  9990
2 60317  50.0000  24.0000 0000000   0.0000 272.0000 15.21936321    15
CTC2_L_00463004-01
1 60318U 24339L   26037.47796296  .00000000  00000+0  00000-0 0  9996
2 60318  50.0000  36.0000 0000000   0.0000  48.0000 15.21936321    10
CTC2_L_00463004-02
1 60319U 26388FM  26037.47796296  .00000000  00000+0  00000-0 0  9993
2 60319  50.0000  36.0000 0000000   0.0000 168.0000 15.21936321    14
CTC2_L_00463004-03
1 60320U 23253WC  26037.47796296  .00000000  00000+0  00000-0 0  9993
2 60320  50.0000  36.0000 0000000   0.0000 288.0000 15.21936321    19
CTC2_L_00463005-01
1 60321U 24143CK  26037.47796296  .00000000  00000+0  00000-0 0  9993
2 60321  50.0000  48.0000 0000000   0.0000  64.0000 15.21936321    15
CTC2_L_00463005-02
1 60322U 24165KN  26037.47796296  .00000000  00000+0  00000-0 0  9998
2 60322  50.0000  48.0000 0000000   0.0000 184.0000 15.21936321    19
CTC2_L_00463005-03
1 60323U 22048HH  26037.47796296  .00000000  00000+0  00000-0 0  9997
2 60323  50.0000  48.0000 0000000   0.0000 304.0000 15.21936321    14
CTC2_L_00463006-01
1 60324U 23423EC  26037.47796296  .00000000  00000+0  00000-0 0  9996
2 60324  50.0000  60.0000 0000000   0.0000  80.0000 15.21936321    10
CTC2_L_00463006-02
1 60325U 22413TT  26037.47796296  .00000000  00000+0  00000-0 0  9995
2 60325  50.0000  60.0000 0000000   0.0000 200.0000 15.21936321    15
CTC2_L_00463006-03
1 60326U 26289KD  26037.47796296  .00000000  00000+0  00000-0 0  9991
2 60326  50.0000  60.0000 0000000   0.0000 320.0000 15.21936321    19
CTC2_L_00463007-01
1 60327U 22341FR  26037.47796296  .00000000  00000+0  00000-0 0  9997
2 60327  50.0000  72.0000 0000000   0.0000  96.0000 15.21936321    13
CTC2_L_00463007-02
1 60328U 22942SJ  26037.47796296  .00000000  00000+0  00000-0 0  9995
2 60328  50.0000  72.0000 0000000   0.0000 216.0000 15.21936321    18
CTC2_L_00463007-03
1 60329U 26119LY  26037.47796296  .00000000  00000+0  00000-0 0  9996
2 60329  50.0000  72.0000 0000000   0.0000 336.0000 15.21936321    12
CTC2_L_00463008-01
1 60330U 22153KX  26037.47796296  .00000000  00000+0  00000-0 0  9992
2 60330  50.0000  84.0000 0000000   0.0000 112.0000 15.21936321    19
CTC2_L_00463008-02
1 60331U 23566YT  26037.47796296  .00000000  00000+0  00000-0 0  9992
2 60331  50.0000  84.0000 0000000   0.0000 232.0000 15.21936321    13
CTC2_L_00463008-03
1 60332U 22231HG  26037.47796296  .00000000  00000+0  00000-0 0  9991
2 60332  50.0000  84.0000 0000000   0.0000 352.0000 15.21936321    17
CTC2_L_00463009-01
1 60333U 25427DY  26037.47796296  .00000000  00000+0  00000-0 0  9992
2 60333  50.0000  96.0000 0000000   0.0000 128.0000 15.21936321    12
CTC2_L_00463009-02
1 60334U 23366XD  26037.47796296  .00000000  00000+0  00000-0 0  9993
2 60334  50.0000  96.0000 0000000   0.0000 248.0000 15.21936321    16
CTC2_L_00463009-03
1 60335U 23331IH  26037.47796296  .00000000  00000+0  00000-0 0  9996
2 60335  50.0000  96.0000 0000000   0.0000   8.0000 15.21936321    11
CTC2_L_00463010-01
1 60336U 24955DD  26037.47796296  .00000000  00000+0  00000-0 0  9990
2 60336  50.0000 108.0000 0000000   0.0000 144.0000 15.21936321    17
CTC2_L_00463010-02
1 60337U 24807OB  26037.47796296  .00000000  00000+0  00000-0 0  9997
2 60337  50.0000 108.0000 0000000   0.0000 264.0000 15.21936321    11
CTC2_L_00463010-03
1 60338U 24333EM  26037.47796296  .00000000  00000+0  00000-0 0  9992
2 60338  50.0000 108.0000 0000000   0.0000  24.0000 15.21936321    16
CTC2_L_00463011-01
1 60339U 26595NO  26037.47796296  .00000000  00000+0  00000-0 0  9995
2 60339  50.0000 120.0000 0000000   0.0000 160.0000 15.21936321    12
CTC2_L_00463011-02
1 60340U 25726QK  26037.47796296  .00000000  00000+0  00000-0 0  9992
2 60340  50.0000 120.0000 0000000   0.0000 280.0000 15.21936321    17
CTC2_L_00463011-03
1 60341U 23620JA  26037.47796296  .00000000  00000+0  00000-0 0  9994
2 60341  50.0000 120.0000 0000000   0.0000  40.0000 15.21936321    12
CTC2_L_00463012-01
1 60342U 23782WT  26037.47796296  .00000000  00000+0  00000-0 0  9994
2 60342  50.0000 132.0000 0000000   0.0000 176.0000 15.21936321    16
CTC2_L_00463012-02
1 60343U 26781HZ  26037.47796296  .00000000  00000+0  00000-0 0  9997
2 60343  50.0000 132.0000 0000000   0.0000 296.0000 15.21936321    10
CTC2_L_00463012-03
1 60344U 26953DO  26037.47796296  .00000000  00000+0  00000-0 0  9999
2 60344  50.0000 132.0000 0000000   0.0000  56.0000 15.21936321    15
CTC2_L_00463013-01
1 60345U 26924YE  26037.47796296  .00000000  00000+0  00000-0 0  9998
2 60345  50.0000 144.0000 0000000   0.0000 192.0000 15.21936321    10
CTC2_L_00463013-02
1 60346U 24718DQ  26037.47796296  .00000000  00000+0  00000-0 0  9998
2 60346  50.0000 144.0000 0000000   0.0000 312.0000 15.21936321    15
CTC2_L_00463013-03
1 60347U 26832RZ  26037.47796296  .00000000  00000+0  00000-0 0  9998
2 60347  50.0000 144.0000 0000000   0.0000  72.0000 15.21936321    19
CTC2_L_00463014-01
1 60348U 24396SL  26037.47796296  .00000000  00000+0  00000-0 0  9992
2 60348  50.0000 156.0000 0000000   0.0000 208.0000 15.21936321    14
CTC2_L_00463014-02
1 60349U 25125T   26037.47796296  .00000000  00000+0  00000-0 0  9994
2 60349  50.0000 156.0000 0000000   0.0000 328.0000 15.21936321    18
CTC2_L_00463014-03
1 60350U 22482VS  26037.47796296  .00000000  00000+0  00000-0 0  9999
2 60350  50.0000 156.0000 0000000   0.0000  88.0000 15.21936321    13
CTC2_L_00463015-01
1 60351U 25433VQ  26037.47796296  .00000000  00000+0  00000-0 0  9999
2 60351  50.0000 168.0000 0000000   0.0000 224.0000 15.21936321    19
CTC2_L_00463015-02
1 60352U 23681GO  26037.47796296  .00000000  00000+0  00000-0 0  9993
2 60352  50.0000 168.0000 0000000   0.0000 344.0000 15.21936321    13
CTC2_L_00463015-03
1 60353U 25681PS  26037.47796296  .00000000  00000+0  00000-0 0  9996
2 60353  50.0000 168.0000 0000000   0.0000 104.0000 15.21936321    18
CTC2_L_00463016-01
1 60354U 24799PL  26037.47796296  .00000000  00000+0  00000-0 0  9996
2 60354  50.0000 180.0000 0000000   0.0000 240.0000 15.21936321    14
CTC2_L_00463016-02
1 60355U 23298FZ  26037.47796296  .00000000  00000+0  00000-0 0  9990
2 60355  50.0000 180.0000 0000000   0.0000   0.0000 15.21936321    19
CTC2_L_00463016-03
1 60356U 23276NC  26037.47796296  .00000000  00000+0  00000-0 0  9997
2 60356  50.0000 180.0000 0000000   0.0000 120.0000 15.21936321    13
CTC2_L_00463017-01
1 60357U 26986ZX  26037.47796296  .00000000  00000+0  00000-0 0  9999
2 60357  50.0000 192.0000 0000000   0.0000 256.0000 15.21936321    17
CTC2_L_00463017-02
1 60358U 24791UW  26037.47796296  .00000000  00000+0  00000-0 0  9992
2 60358  50.0000 192.0000 0000000   0.0000  16.0000 15.21936321    12
CTC2_L_00463017-03
1 60359U 24581JX  26037.47796296  .00000000  00000+0  00000-0 0  9990
2 60359  50.0000 192.0000 0000000   0.0000 136.0000 15.21936321    16
CTC2_L_00463018-01
1 60360U 23085YF  26037.47796296  .00000000  00000+0  00000-0 0  9990
2 60360  50.0000 204.0000 0000000   0.0000 272.0000 15.21936321    13
CTC2_L_00463018-02
1 60361U 24446DQ  26037.47796296  .00000000  00000+0  00000-0 0  9993
2 60361  50.0000 204.0000 0000000   0.0000  32.0000 15.21936321    18
CTC2_L_00463018-03
1 60362U 24933MH  26037.47796296  .00000000  00000+0  00000-0 0  9995
2 60362  50.0000 204.0000 0000000   0.0000 152.0000 15.21936321    12
CTC2_L_00463019-01
1 60363U 25133HH  26037.47796296  .00000000  00000+0  00000-0 0  9999
2 60363  50.0000 216.0000 0000000   0.0000 288.0000 15.21936321    16
CTC2_L_00463019-02
1 60364U 22978VJ  26037.47796296  .00000000  00000+0  00000-0 0  9994
2 60364  50.0000 216.0000 0000000   0.0000  48.0000 15.21936321    11
CTC2_L_00463019-03
1 60365U 24491LT  26037.47796296  .00000000  00000+0  00000-0 0  9997
2 60365  50.0000 216.0000 0000000   0.0000 168.0000 15.21936321    15
CTC2_L_00463020-01
1 60366U 24853ZR  26037.47796296  .00000000  00000+0  00000-0 0  9990
2 60366  50.0000 228.0000 0000000   0.0000 304.0000 15.21936321    11
CTC2_L_00463020-02
1 60367U 23919GW  26037.47796296  .00000000  00000+0  00000-0 0  9993
2 60367  50.0000 228.0000 0000000   0.0000  64.0000 15.21936321    15
CTC2_L_00463020-03
1 60368U 26910ZD  26037.47796296  .00000000  00000+0  00000-0 0  9998
2 60368  50.0000 228.0000 0000000   0.0000 184.0000 15.21936321    19
CTC2_L_00463021-01
1 60369U 22614FE  26037.47796296  .00000000  00000+0  00000-0 0  9996
2 60369  50.0000 240.0000 0000000   0.0000 320.0000 15.21936321    16
CTC2_L_00463021-02
1 60370U 23751YX  26037.47796296  .00000000  00000+0  00000-0 0  9991
2 60370  50.0000 240.0000 0000000   0.0000  80.0000 15.21936321    11
